[{"OBJECT_NAME":"KONDOR-FKA NO. 1","OBJECT_ID":"2023-074A","EPOCH":"2026-03-07T10:13:03.575712","MEAN_MOTION":15.19772289,"ECCENTRICITY":0.00017305,"INCLINATION":97.4394,"RA_OF_ASC_NODE":262.4533,"ARG_OF_PERICENTER":84.6258,"MEAN_ANOMALY":275.5174,"EPHEMERIS_TYPE":0,"CLASSIFICATION_TYPE":"U","NORAD_CAT_ID":56756,"ELEMENT_SET_NO":999,"REV_AT_EPOCH":15423,"BSTAR":0.0003518818,"MEAN_MOTION_DOT":7.463e-5,"MEAN_MOTION_DDOT":0},{"OBJECT_NAME":"CZ-6A DEB","OBJECT_ID":"2024-140AK","EPOCH":"2026-03-09T15:33:22.779648","MEAN_MOTION":14.91455209,"ECCENTRICITY":0.0138813,"INCLINATION":89.0614,"RA_OF_ASC_NODE":284.4893,"ARG_OF_PERICENTER":156.7754,"MEAN_ANOMALY":203.9833,"EPHEMERIS_TYPE":0,"CLASSIFICATION_TYPE":"U","NORAD_CAT_ID":60634,"ELEMENT_SET_NO":999,"REV_AT_EPOCH":8558,"BSTAR":0.0013703,"MEAN_MOTION_DOT":0.00016538,"MEAN_MOTION_DDOT":0}]
